$$SOE
2459580.500000000, A.D. 2022-Jan-01 00:00:00.0000, 4.309537276452237E+08, 2.880722424382586E+07, -1.788134388203683E+07,
2459587.500000000, A.D. 2022-Jan-08 00:00:00.0000, 4.286043545908904E+08, 3.963541988227613E+07, -1.769784279942726E+07,
2459594.500000000, A.D. 2022-Jan-15 00:00:00.0000, 4.259948698580357E+08, 5.043933763226058E+07, -1.750359292536794E+07,
2459601.500000000, A.D. 2022-Jan-22 00:00:00.0000, 4.231241935320464E+08, 6.121210773219376E+07, -1.729860340746955E+07,
2459608.500000000, A.D. 2022-Jan-29 00:00:00.0000, 4.199914421211614E+08, 7.194674711043790E+07, -1.708289240651482E+07,
2459615.500000000, A.D. 2022-Feb-05 00:00:00.0000, 4.165959346916820E+08, 8.263616426198538E+07, -1.685648725601672E+07,
2459622.500000000, A.D. 2022-Feb-12 00:00:00.0000, 4.129372011037902E+08, 9.327316362318438E+07, -1.661942489942030E+07,
2459629.500000000, A.D. 2022-Feb-19 00:00:00.0000, 4.090149909830738E+08, 1.038504518256051E+08, -1.637175228818783E+07,
2459636.500000000, A.D. 2022-Feb-26 00:00:00.0000, 4.048292820759724E+08, 1.143606451161686E+08, -1.611352667790358E+07,
2459643.500000000, A.D. 2022-Mar-05 00:00:00.0000, 4.003802881064410E+08, 1.247962773335585E+08, -1.584481588581878E+07,
2459650.500000000, A.D. 2022-Mar-12 00:00:00.0000, 3.956684663115591E+08, 1.351498083789357E+08, -1.556569853394836E+07,
2459657.500000000, A.D. 2022-Mar-19 00:00:00.0000, 3.906945246812009E+08, 1.454136332094813E+08, -1.527626428030448E+07,
2459664.500000000, A.D. 2022-Mar-26 00:00:00.0000, 3.854594288767722E+08, 1.555800913458624E+08, -1.497661403911106E+07,
2459671.500000000, A.D. 2022-Apr-02 00:00:00.0000, 3.799644088485153E+08, 1.656414768311134E+08, -1.466686019905062E+07,
2459678.500000000, A.D. 2022-Apr-09 00:00:00.0000, 3.742109653747526E+08, 1.755900486346708E+08, -1.434712686239950E+07,
2459685.500000000, A.D. 2022-Apr-16 00:00:00.0000, 3.682008768300516E+08, 1.854180421387672E+08, -1.401755008271256E+07,
2459692.500000000, A.D. 2022-Apr-23 00:00:00.0000, 3.619362048599899E+08, 1.951176827704571E+08, -1.367827789411446E+07,
2459699.500000000, A.D. 2022-Apr-30 00:00:00.0000, 3.554192970419108E+08, 2.046811995123989E+08, -1.332947014196147E+07,
2459706.500000000, A.D. 2022-May-07 00:00:00.0000, 3.486527895495628E+08, 2.141008362905362E+08, -1.297129855552095E+07,
2459713.500000000, A.D. 2022-May-14 00:00:00.0000, 3.416396111630085E+08, 2.233688642401623E+08, -1.260394694037507E+07,
2459720.500000000, A.D. 2022-May-21 00:00:00.0000, 3.343829865443326E+08, 2.324775955693060E+08, -1.222761124050936E+07,
2459727.500000000, A.D. 2022-May-28 00:00:00.0000, 3.268864382558993E+08, 2.414193980172718E+08, -1.184249950290504E+07,
2459734.500000000, A.D. 2022-Jun-04 00:00:00.0000, 3.191537877572954E+08, 2.501867095473063E+08, -1.144883179421954E+07,
2459741.500000000, A.D. 2022-Jun-11 00:00:00.0000, 3.111891554880368E+08, 2.587720532227764E+08, -1.104684008142681E+07,
2459748.500000000, A.D. 2022-Jun-18 00:00:00.0000, 3.029969600410925E+08, 2.671680522231279E+08, -1.063676807784329E+07,
2459755.500000000, A.D. 2022-Jun-25 00:00:00.0000, 2.945819164276784E+08, 2.753674449054645E+08, -1.021887105911358E+07,
2459762.500000000, A.D. 2022-Jul-02 00:00:00.0000, 2.859490335437464E+08, 2.833630997812082E+08, -9.793415666228548E+06,
2459769.500000000, A.D. 2022-Jul-09 00:00:00.0000, 2.771036112109303E+08, 2.911480305158659E+08, -9.360679716667339E+06,
2459776.500000000, A.D. 2022-Jul-16 00:00:00.0000, 2.680512367242635E+08, 2.987154119595574E+08, -8.920951930263042E+06,
2459783.500000000, A.D. 2022-Jul-23 00:00:00.0000, 2.587977786959908E+08, 3.060585972058361E+08, -8.474531361734152E+06,
2459790.500000000, A.D. 2022-Jul-30 00:00:00.0000, 2.493493782723278E+08, 3.131711322500688E+08, -8.021726821370766E+06,
2459797.500000000, A.D. 2022-Aug-06 00:00:00.0000, 2.397124413282686E+08, 3.200467688233202E+08, -7.562856561684996E+06,
2459804.500000000, A.D. 2022-Aug-13 00:00:00.0000, 2.298936308300796E+08, 3.266794780804060E+08, -7.098247930460677E+06,
2459811.500000000, A.D. 2022-Aug-20 00:00:00.0000, 2.198998578157877E+08, 3.330634645643535E+08, -6.628236888442025E+06,
2459818.500000000, A.D. 2022-Aug-27 00:00:00.0000, 2.097382710907143E+08, 3.391931796475048E+08, -6.153167458778709E+06,
2459825.500000000, A.D. 2022-Sep-03 00:00:00.0000, 1.994162459219147E+08, 3.450633342656284E+08, -5.673391141924649E+06,
2459832.500000000, A.D. 2022-Sep-10 00:00:00.0000, 1.889413718631274E+08, 3.506689108972849E+08, -5.189266304519027E+06,
2459839.500000000, A.D. 2022-Sep-17 00:00:00.0000, 1.783214397866178E+08, 3.560051747181833E+08, -4.701157547578260E+06,
2459846.500000000, A.D. 2022-Sep-24 00:00:00.0000, 1.675644282349936E+08, 3.610676838155309E+08, -4.209435066443756E+06,
2459853.500000000, A.D. 2022-Oct-01 00:00:00.0000, 1.566784893913333E+08, 3.658522983814915E+08, -3.714474029329628E+06,
2459860.500000000, A.D. 2022-Oct-08 00:00:00.0000, 1.456719351394566E+08, 3.703551893558605E+08, -3.216653972519130E+06,
2459867.500000000, A.D. 2022-Oct-15 00:00:00.0000, 1.345532223535395E+08, 3.745728476699170E+08, -2.716358032542139E+06,
2459874.500000000, A.D. 2022-Oct-22 00:00:00.0000, 1.233309353079429E+08, 3.785020923621511E+08, -2.213971956411451E+06,
2459881.500000000, A.D. 2022-Oct-29 00:00:00.0000, 1.120137677779102E+08, 3.821400749392341E+08, -1.709883334193259E+06,
2459888.500000000, A.D. 2022-Nov-05 00:00:00.0000, 1.006105070122481E+08, 3.854842827021459E+08, -1.204481026554197E+06,
2459895.500000000, A.D. 2022-Nov-12 00:00:00.0000, 8.913001769743311E+07, 3.885325422847298E+08, -6.981545076310039E+05,
2459902.500000000, A.D. 2022-Nov-19 00:00:00.0000, 7.758122527646914E+07, 3.912830224372323E+08, -1.912931388774812E+05,
2459909.500000000, A.D. 2022-Nov-26 00:00:00.0000, 6.597309896810789E+07, 3.937342356533035E+08, 3.157145660144389E+05,
2459916.500000000, A.D. 2022-Dec-03 00:00:00.0000, 5.431463473615746E+07, 3.958850386323218E+08, 8.224816654362977E+05,
2459923.500000000, A.D. 2022-Dec-10 00:00:00.0000, 4.261483833709442E+07, 3.977346316059116E+08, 1.328623497398347E+06,
2459930.500000000, A.D. 2022-Dec-17 00:00:00.0000, 3.088270855116829E+07, 3.992825565203348E+08, 1.833758362747371E+06,
2459937.500000000, A.D. 2022-Dec-24 00:00:00.0000, 1.912722078348920E+07, 4.005286940321351E+08, 2.337508165611058E+06,
2459944.500000000, A.D. 2022-Dec-31 00:00:00.0000, 7.357311465501367E+06, 4.014732594548855E+08, 2.839498984212965E+06,
2459951.500000000, A.D. 2023-Jan-07 00:00:00.0000, -4.418136552003647E+06, 4.021167986581370E+08, 3.339361636743158E+06,
2459958.500000000, A.D. 2023-Jan-14 00:00:00.0000, -1.619030951520703E+07, 4.024601844607412E+08, 3.836732460634649E+06,
2459965.500000000, A.D. 2023-Jan-21 00:00:00.0000, -2.795047977612345E+07, 4.025046103912873E+08, 4.331254103048235E+06,
2459972.500000000, A.D. 2023-Jan-28 00:00:00.0000, -3.969002057428828E+07, 4.022515816726532E+08, 4.822575968794286E+06,
2459979.500000000, A.D. 2023-Feb-04 00:00:00.0000, -5.140041875026141E+07, 4.017029065213096E+08, 5.310354590544462E+06,
2459986.500000000, A.D. 2023-Feb-11 00:00:00.0000, -6.307328713934410E+07, 4.008606876289611E+08, 5.794254068702370E+06,
2459993.500000000, A.D. 2023-Feb-18 00:00:00.0000, -7.470037666991578E+07, 3.997273130642579E+08, 6.273946518565387E+06,
2460000.500000000, A.D. 2023-Feb-25 00:00:00.0000, -8.627358787182878E+07, 3.983054464963562E+08, 6.749112486849189E+06,
2460007.500000000, A.D. 2023-Mar-04 00:00:00.0000, -9.778498166708903E+07, 3.965980168244973E+08, 7.219441329365462E+06,
2460014.500000000, A.D. 2023-Mar-11 00:00:00.0000, -1.092267893945991E+08, 3.946082072803113E+08, 7.684631547148526E+06,
2460021.500000000, A.D. 2023-Mar-18 00:00:00.0000, -1.205914220079112E+08, 3.923394440196465E+08, 8.144391072792470E+06,
2460028.500000000, A.D. 2023-Mar-25 00:00:00.0000, -1.318714782338261E+08, 3.897953842220891E+08, 8.598437484840393E+06,
2460035.500000000, A.D. 2023-Apr-01 00:00:00.0000, -1.430597512635275E+08, 3.869799041550162E+08, 9.046498143982857E+06,
2460042.500000000, A.D. 2023-Apr-08 00:00:00.0000, -1.541492345933032E+08, 3.838970884887058E+08, 9.488310408296496E+06,
2460049.500000000, A.D. 2023-Apr-15 00:00:00.0000, -1.651331293575112E+08, 3.805512198153395E+08, 9.923622052242279E+06,
2460056.500000000, A.D. 2023-Apr-22 00:00:00.0000, -1.760048513547535E+08, 3.769467653715671E+08, 1.035219147529191E+07,
2460063.500000000, A.D. 2023-Apr-29 00:00:00.0000, -1.867580350531760E+08, 3.730883632681714E+08, 1.077378763503683E+07,
2460070.500000000, A.D. 2023-May-06 00:00:00.0000, -1.973865363604161E+08, 3.689808100649257E+08, 1.118819001303218E+07,
2460077.500000000, A.D. 2023-May-13 00:00:00.0000, -2.078844351585436E+08, 3.646290488506314E+08, 1.159518863108981E+07,
2460084.500000000, A.D. 2023-May-20 00:00:00.0000, -2.182460373949048E+08, 3.600381573842532E+08, 1.199458405766405E+07,
2460091.500000000, A.D. 2023-May-27 00:00:00.0000, -2.284658765630186E+08, 3.552133363098458E+08, 1.238618738544387E+07,
2460098.500000000, A.D. 2023-Jun-03 00:00:00.0000, -2.385387145458930E+08, 3.501598975089749E+08, 1.276982017827775E+07,
2460105.500000000, A.D. 2023-Jun-10 00:00:00.0000, -2.484595418299919E+08, 3.448832526104976E+08, 1.314531438545871E+07,
2460112.500000000, A.D. 2023-Jun-17 00:00:00.0000, -2.582235770344402E+08, 3.393889016274788E+08, 1.351251221167895E+07,
2460119.500000000, A.D. 2023-Jun-24 00:00:00.0000, -2.678262654702656E+08, 3.336824218031147E+08, 1.387126591929068E+07,
2460126.500000000, A.D. 2023-Jul-01 00:00:00.0000, -2.772632765124478E+08, 3.277694575165694E+08, 1.422143760881178E+07,
2460133.500000000, A.D. 2023-Jul-08 00:00:00.0000, -2.865305014960580E+08, 3.216557120914052E+08, 1.456289919986688E+07,
2460140.500000000, A.D. 2023-Jul-15 00:00:00.0000, -2.956240534493006E+08, 3.153469386956900E+08, 1.489553249984659E+07,
2460147.500000000, A.D. 2023-Jul-22 00:00:00.0000, -3.045402651746848E+08, 3.088489293117125E+08, 1.521922895435192E+07,
$$EOE